LEMUR-2-VALHALLA        
1 58900U 24022B   26199.13144275  .00008835  00000+0  21936-3 0  9993
2 58900  97.4076  49.5102 0008897  14.1881 345.9614 15.40542637137036
LEMUR-2-CAEL            
1 58903U 24022E   26199.11444021  .00009726  00000+0  23070-3 0  9997
2 58903  97.4058  50.4848 0006785 358.7316   1.3912 15.41915567137100
LEMUR-2-JOHNNYTRUONG    
1 59146U 24043BA  26198.97147180  .00027464  00000+0  30707-3 0  9993
2 59146  97.5402 352.6392 0003948  86.3839 273.7870 15.62712150132847
LEMUR-2-TOMATOKECHUP    
1 60471U 24149D   26199.17518508  .00005790  00000+0  16424-3 0  9990
2 60471  97.3790 281.3129 0003402 116.6950 243.4643 15.36619049106926
LEMUR-2-STELLA          
1 60533U 24149BT  26199.18337024  .00006034  00000+0  35131-3 0  9990
2 60533  97.6730 281.7865 0001233 123.5601 236.5747 15.12405631105182
LEMUR-2-MARHISYAM       
1 60536U 24149BW  26199.17545449  .00005434  00000+0  32204-3 0  9995
2 60536  97.6873 282.2583 0002299  64.5787 295.5681 15.11810361105167
LEMUR-2-AHMED-ASRAR     
1 60576U 24149DN  26199.17894903  .00006248  00000+0  35425-3 0  9993
2 60576  97.7001 284.4767 0001472 192.2142 167.9053 15.13344566105255
LEMUR-2-LLOYD           
1 60577U 24149DP  26199.19737374  .00004288  00000+0  26952-3 0  9991
2 60577  97.6736 280.3538 0004468  64.5877 295.5814 15.09779519105073
LEMUR-2-SQUIRRELCOMM    
1 60578U 24149DQ  26199.19058431  .00002592  00000+0  17514-3 0  9992
2 60578  97.6701 280.0096 0004024 313.0050  47.0840 15.07461540105074
LEMUR-2-SIERRINI        
1 60579U 24149DR  26199.13866374  .00004898  00000+0  29269-3 0  9991
2 60579  97.6832 281.8796 0006321  83.4649 276.7300 15.11545513105137
LEMUR-2-WILSON          
1 62694U 25009CP  26199.14626662  .00000931  00000+0  89692-4 0  9993
2 62694  97.7017 277.0682 0001786 307.3709  52.7349 14.95281701 81987
LEMUR-2-STAR-FOX        
1 62696U 25009CR  26199.18961653  .00003626  00000+0  27503-3 0  9997
2 62696  97.6900 280.5755 0001884  30.7220 329.4115 15.02862528 82216
LEMUR-2-ARIANNA         
1 62699U 25009CU  26199.18807891  .00003800  00000+0  28793-3 0  9999
2 62699  97.6842 280.3241 0002196  39.3641 320.7744 15.02865359 82218
LEMUR-2-ALISIA          
1 62706U 25009DB  26199.02665105  .00004049  00000+0  30380-3 0  9992
2 62706  97.6965 280.9946 0004648 121.1027 239.0655 15.03199026104796
LEMUR-2-ROUNDTRIPPER    
1 62711U 25009DG  26199.16288767  .00004150  00000+0  30271-3 0  9990
2 62711  97.7246 281.8056 0004492  58.5266 301.6399 15.04258268 82287
LEMUR-2-MYNAMEISJEFF    
1 62712U 25009DH  26199.16139327  .00004104  00000+0  29951-3 0  9990
2 62712  97.7294 282.2039 0004306  91.2330 268.9389 15.04249078 82280
